{
    "links": {
        "self": "http://www.neowsapp.com/rest/v1/neo/3703058?api_key=iIulBulltgU6a56xZRHN4H3l9WmuAYTsLGpBGhQ2"
    },
    "id": "3703058",
    "neo_reference_id": "3703058",
    "name": "(2014 YD15)",
    "designation": "2014 YD15",
    "nasa_jpl_url": "http://ssd.jpl.nasa.gov/sbdb.cgi?sstr=3703058",
    "absolute_magnitude_h": 26.8,
    "estimated_diameter": {
        "kilometers": {
            "estimated_diameter_min": 0.0116025908,
            "estimated_diameter_max": 0.0259441818
        },
        "meters": {
            "estimated_diameter_min": 11.6025908209,
            "estimated_diameter_max": 25.9441817907
        },
        "miles": {
            "estimated_diameter_min": 0.0072095135,
            "estimated_diameter_max": 0.0161209622
        },
        "feet": {
            "estimated_diameter_min": 38.066244069,
            "estimated_diameter_max": 85.1187093863
        }
    },
    "is_potentially_hazardous_asteroid": false,
    "close_approach_data": [
        {
            "close_approach_date": "1972-11-18",
            "close_approach_date_full": "1972-Nov-18 07:42",
            "epoch_date_close_approach": 90920520000,
            "relative_velocity": {
                "kilometers_per_second": "22.7260316124",
                "kilometers_per_hour": "81813.7138045522",
                "miles_per_hour": "50835.860113723"
            },
            "miss_distance": {
                "astronomical": "0.4766849327",
                "lunar": "185.4304388203",
                "kilometers": "71311050.593013349",
                "miles": "44310632.1271842562"
            },
            "orbiting_body": "Earth"
        },
        {
            "close_approach_date": "2014-12-30",
            "close_approach_date_full": "2014-Dec-30 21:48",
            "epoch_date_close_approach": 1419976080000,
            "relative_velocity": {
                "kilometers_per_second": "8.3282854202",
                "kilometers_per_hour": "29981.8275125863",
                "miles_per_hour": "18629.5416563623"
            },
            "miss_distance": {
                "astronomical": "0.004357522",
                "lunar": "1.695076058",
                "kilometers": "651876.00967814",
                "miles": "405056.969672732"
            },
            "orbiting_body": "Moon"
        },
        {
            "close_approach_date": "2014-12-31",
            "close_approach_date_full": "2014-Dec-31 09:44",
            "epoch_date_close_approach": 1420019040000,
            "relative_velocity": {
                "kilometers_per_second": "7.9748815421",
                "kilometers_per_hour": "28709.5735514468",
                "miles_per_hour": "17839.0125214531"
            },
            "miss_distance": {
                "astronomical": "0.0041232934",
                "lunar": "1.6039611326",
                "kilometers": "616835.910025058",
                "miles": "383284.0613714804"
            },
            "orbiting_body": "Earth"
        },
        {
            "close_approach_date": "2130-03-07",
            "close_approach_date_full": "2130-Mar-07 19:59",
            "epoch_date_close_approach": 5054817540000,
            "relative_velocity": {
                "kilometers_per_second": "9.9878826383",
                "kilometers_per_hour": "35956.3774978272",
                "miles_per_hour": "22341.8946735805"
            },
            "miss_distance": {
                "astronomical": "0.0702737819",
                "lunar": "27.3365011591",
                "kilometers": "10512808.089084553",
                "miles": "6532356.0371827114"
            },
            "orbiting_body": "Earth"
        }
    ],
    "orbital_data": {
        "orbit_id": "4",
        "orbit_determination_date": "2017-04-06 08:36:41",
        "first_observation_date": "2014-12-28",
        "last_observation_date": "2014-12-29",
        "data_arc_in_days": 1,
        "observations_used": 36,
        "orbit_uncertainty": "7",
        "minimum_orbit_intersection": ".00405819",
        "jupiter_tisserand_invariant": "3.791",
        "epoch_osculation": "2459000.5",
        "eccentricity": ".4976419229748181",
        "semi_major_axis": "1.896426830758806",
        "inclination": ".9889720315304193",
        "ascending_node_longitude": "113.5192974111044",
        "orbital_period": "953.8993734757496",
        "perihelion_distance": ".9526853359189537",
        "perihelion_argument": "10.85312382680734",
        "aphelion_distance": "2.840168325598658",
        "perihelion_time": "2458950.394314401210",
        "mean_anomaly": "18.90980046442301",
        "mean_motion": ".3773982979863568",
        "equinox": "J2000",
        "orbit_class": {
            "orbit_class_type": "APO",
            "orbit_class_description": "Near-Earth asteroid orbits which cross the Earth’s orbit similar to that of 1862 Apollo",
            "orbit_class_range": "a (semi-major axis) > 1.0 AU; q (perihelion) < 1.017 AU"
        }
    },
    "is_sentry_object": false
}